[{"OBJECT_NAME":"TYVAK-0172","OBJECT_ID":"2020-059C","EPOCH":"2026-03-09T15:00:33.219936","MEAN_MOTION":15.70916107,"ECCENTRICITY":0.0003543,"INCLINATION":97.7214,"RA_OF_ASC_NODE":311.0561,"ARG_OF_PERICENTER":67.1132,"MEAN_ANOMALY":293.0503,"EPHEMERIS_TYPE":0,"CLASSIFICATION_TYPE":"U","NORAD_CAT_ID":46267,"ELEMENT_SET_NO":999,"REV_AT_EPOCH":30311,"BSTAR":0.0021652,"MEAN_MOTION_DOT":0.00278441,"MEAN_MOTION_DDOT":0},{"OBJECT_NAME":"STARLINK-11385 [DTC]","OBJECT_ID":"2024-213G","EPOCH":"2026-03-09T07:30:03.473280","MEAN_MOTION":15.69776281,"ECCENTRICITY":6.792e-5,"INCLINATION":53.1574,"RA_OF_ASC_NODE":43.2909,"ARG_OF_PERICENTER":111.0294,"MEAN_ANOMALY":249.0797,"EPHEMERIS_TYPE":0,"CLASSIFICATION_TYPE":"U","NORAD_CAT_ID":62014,"ELEMENT_SET_NO":999,"REV_AT_EPOCH":7485,"BSTAR":0.0020289477,"MEAN_MOTION_DOT":0.00253577,"MEAN_MOTION_DDOT":0}]
