TYVAK-0172              
1 46267U 20059C   26068.62538449  .00278441  00000+0  21652-2 0  9997
2 46267  97.7214 311.0561 0003543  67.1132 293.0503 15.70916107303116
STARLINK-11385 [DTC]    
1 62014U 24213G   26068.31254020  .00253577  00000+0  20289-2 0  9995
2 62014  53.1574  43.2909 0000679 111.0294 249.0797 15.69776281 74851
